ASTROCAST-0403          
1 55111U 23001DG  26068.82333059  .00013959  00000+0  51317-3 0  9990
2 55111  97.5604 161.3228 0004770 338.0704  22.0330 15.28004949129376
STARLINK-36140          
1 67034U 25294E   26068.93827218  .00032550  00000+0  11874-2 0  9991
2 67034  43.0008  36.9792 0001233 266.4315  93.6396 15.27574492 14837
